#dP2023 12  2  0  0  0.00000000      96 __u+U IGS20 FIT  IAC
## 2290 518400.00000000   900.00000000 60280 0.0000000000000
+  119   C06C07C08C09C10C11C12C13C14C16C19C20C21C22C23C24C25
+        C26C27C28C29C30C32C33C34C35C36C37C38C39C40C41C42C43
+        C44C45C46E02E03E04E05E07E08E09E10E11E12E13E15E18E19
+        E21E24E25E26E27E30E31E33E34E36G01G02G03G04G05G06G07
+        G08G09G10G11G12G13G14G15G16G17G18G19G20G21G22G23G24
+        G25G26G27G28G29G30G31G32J02J03J04R01R02R03R04R05R07
+        R08R09R11R12R13R14R15R16R17R18R19R20R21R22R24R25R26
++         8  7 13  8 10  9  6 10  8  8  8  6 11  7  7  7  8
++         8  6  6  8  8  9  8  7  7  7  8  9  8  7  7  7  9
++         9  8  8  7  7  8  7  7  7  7  7  7  7  7  7  7  7
++         8  7  8  7  9  8  7  7  7  6  7  8  7  7  6  7  7
++         8  7  7  7  7  7  8  7  7  8  7  7  6  7  7  7  7
++         8  7  7  0  7  7  7  7  8  8  8  8  8  6  8  6  9
++         8  7  8  8  9  6  6  6  7  6  8  7  7  7  8  7  9
%c M  cc GPS ccc cccc cccc cccc cccc ccccc ccccc ccccc ccccc
%c cc cc ccc ccc cccc cccc cccc cccc ccccc ccccc ccccc ccccc
%f  0.0000000  0.000000000  0.00000000000  0.000000000000000
%f  0.0000000  0.000000000  0.00000000000  0.000000000000000
%i    0    0    0    0      0      0      0      0         0
%i    0    0    0    0      0      0      0      0         0
/* INFORMATION & ANALYSIS CENTER (IAC)      ULTRA-RAPID DATA
/* S/V CLOCKS ARE ALIGNED TO GNSS TIME                      
/* G:C1WC2W R:C1PC2P E:C1XC5X C:C2IC6I J:C1CC2S             
/* PCV:IGS20_2287 OL/AL:FES2004  NONE     YN ORB:CoN CLK:CoN
*  2023 12 02 17 15  0.00000000
PC06  -6912.548781  23730.012652 -34116.368876 999999.999999
PC07 -16468.934058  35890.597741  14610.236877 999999.999999
PC08  -1927.115676  38774.922989  16722.169828 999999.999999
PC09   4302.083277  26733.360461 -31758.067951 999999.999999
PC10  -7948.278370  35426.262181  21340.312728 999999.999999
PC11  -4113.405559 -15571.170509 -22710.067695 999999.999999
PC12  16930.383511 -11214.372554 -19095.947419 999999.999999
PC13   1972.917667  40713.371015  11516.920185 999999.999999
PC14   3289.559660 -23306.911423  15038.440508 999999.999999
PC16  -9615.481512  22042.084216 -34404.116438 999999.999999
PC19   4846.127805  17980.346049 -20760.564451 999999.999999
PC20  -9680.271649  24734.066086  -8518.258642 999999.999999
PC21  19683.723270 -17062.539675 -10023.063418 999999.999999
PC22  17454.745022    500.434179 -21779.641078 999999.999999
PC23 -19026.698045 -12970.398237 -15759.675628 999999.999999
PC24   1770.677288 -22732.883980  16048.818668 999999.999999
PC25 -13196.410330 -24569.156026   -518.675943 999999.999999
PC26  14136.485926  -8125.659536  22626.216228 999999.999999
PC27 -23709.262156   7165.807868  12850.072156 999999.999999
PC28 -27489.702326  -3989.318253  -2653.056838 999999.999999
PC29  14831.785566  13957.482436  19077.364524 999999.999999
PC30  -7192.358784  15311.260426  22194.435398 999999.999999
PC32 -19577.640607  17101.039537  10152.220223 999999.999999
PC33  -4884.622504 -18063.839987  20703.846984 999999.999999
PC34   5450.595178 -15627.488156 -22472.605195 999999.999999
PC35  27611.261447   2927.645620   2592.004106 999999.999999
PC36  12114.717087  25146.774694   -301.307298 999999.999999
PC37 -14635.769567   7185.643763 -22642.730474 999999.999999
PC38  -7200.351554  34800.789742  22872.979552 999999.999999
PC39 -13180.742619  20888.496633 -34172.988592 999999.999999
PC40 -24077.446573  31543.592069  13899.015353 999999.999999
PC41 -17136.633969  -1302.201435  22033.270241 999999.999999
PC42  10727.027346 -24784.340278   7110.718296 999999.999999
PC43 -13913.010401 -14361.300478 -19479.053379 999999.999999
PC44  23507.433287  -8065.086601 -12672.612137 999999.999999
PC45  18962.276906  12567.929038  16173.882613 999999.999999
PC46   -859.908769  23314.109905 -15354.949790 999999.999999
PE02  -7147.054764  28276.615744  -5125.861738 999999.999999
PE03 -12650.290642  19441.436351 -18396.093666 999999.999999
PE04  -8780.625804 -14658.558231  24170.080597 999999.999999
PE05 -26568.494058  12901.733328  -1991.766712 999999.999999
PE07  24837.781879   1575.753475 -16029.813136 999999.999999
PE08   8116.560803  14819.180448 -24311.257179 999999.999999
PE09 -24723.024584  -1572.001607  16189.375692 999999.999999
PE10 -22868.340483 -18677.983237  -2010.156277 999999.999999
PE11 -25539.447209 -12364.072629   8440.498063 999999.999999
PE12 -16971.749939 -21632.266897 -10973.917258 999999.999999
PE13  25496.218113  12872.185609  -7760.622304 999999.999999
PE15  16605.828856  21654.128189  11480.330789 999999.999999
PE18  15129.730337 -21750.835008 -18542.459006 999999.999999
PE19  15110.691969 -19068.553215  16854.774651 999999.999999
PE21  15760.176184 -15038.284240  20035.581751 999999.999999
PE24 -15572.917836  -8144.888096 -23829.857498 999999.999999
PE25 -15855.284090  14670.475862 -20238.818825 999999.999999
PE26  18975.031511  -3980.774794 -22356.790869 999999.999999
PE27  15666.934631   7584.515416  23943.863895 999999.999999
PE30   6075.730440  25685.746355  13406.251466 999999.999999
PE31  -6344.070683 -25455.542918 -13695.070256 999999.999999
PE33   2471.706110 -17308.435272 -23872.839469 999999.999999
PE34  -1826.368492  17642.480402  23703.021087 999999.999999
PE36 -19340.608707   3307.109093  22172.630118 999999.999999
PG01 -22065.349542 -14731.484186   3046.644434 999999.999999
PG02 -21296.882397 -15709.479201  -2851.358928 999999.999999
PG03 -12168.524711 -11915.475959  20264.772703 999999.999999
PG04 -20972.539638  -3765.438965  15945.445825 999999.999999
PG05   6834.898248  22559.184238 -12328.519413 999999.999999
PG06  -4355.859711  14684.047098  21757.916842 999999.999999
PG07 -20911.451038  -1310.141424 -16118.185342 999999.999999
PG08 -14424.196568  -9251.072444 -20477.931459 999999.999999
PG09 -24953.375553   6131.113097   6757.296976 999999.999999
PG10  10776.179508 -20600.010831 -12337.642828 999999.999999
PG11   6646.405111  20040.786851  16167.718902 999999.999999
PG12  11200.507001  13683.077689  19563.361215 999999.999999
PG13   3417.165885  14715.645278 -22044.636537 999999.999999
PG14 -13350.678456  17428.686923 -14799.707790 999999.999999
PG15  15376.250578   8371.758496 -20514.373985 999999.999999
PG16   -297.892033 -25207.969444  -7893.408294 999999.999999
PG17 -21789.575769  13420.191578   7798.782905 999999.999999
PG18  19621.456074   -174.638916 -17971.859926 999999.999999
PG19 -15411.505585  15338.668859  14816.480096 999999.999999
PG20    879.351021  26637.001427    731.981085 999999.999999
PG21 -19815.261372 -17224.782946  -6014.684014 999999.999999
PG22 -10626.009169  22990.836283  -8025.429614 999999.999999
PG23  14573.461302  -8848.918667 -20299.404897 999999.999999
PG24  21294.834467  15985.944823  -3333.791061 999999.999999
PG25  15296.577550     92.010766  21374.392345 999999.999999
PG26   3206.355839 -26011.068645   2716.126335 999999.999999
PG27    -37.492930 -16087.499716 -21320.909070 999999.999999
PG28      0.000000      0.000000      0.000000 999999.999999
PG29  25353.480468  -3373.753316   7310.152101 999999.999999
PG30 -13919.118026   8706.958939 -20797.409796 999999.999999
PG31  -1546.757856 -18244.296609  18885.914359 999999.999999
PG32  18395.750691 -16025.838042  10422.459621 999999.999999
PJ02 -23303.468276  31054.425639 -11664.358436 999999.999999
PJ03 -27217.486742  22977.060117  27769.887888 999999.999999
PJ04 -32036.574983  27374.495956   8274.596798 999999.999999
PR01  -6950.736214  -8604.104293  22982.379484 999999.999999
PR02 -17756.975590   6440.532516  17221.558678 999999.999999
PR03 -18329.099323  17727.943257   1541.702770 999999.999999
PR04  -9090.071788  18789.109876 -14653.883737 999999.999999
PR05   5120.865285   9913.772735 -22933.387259 999999.999999
PR07  18002.868921 -18018.676923   -547.064466 999999.999999
PR08   8646.846748 -18833.987030  14898.937021 999999.999999
PR09  12750.362958   5029.279298  21511.270880 999999.999999
PR11  -2152.282179 -23508.183867   9691.327319 999999.999999
PR12 -10800.700973 -21035.936559  -9523.287973 999999.999999
PR13 -12715.364094  -7700.616553 -20744.543294 999999.999999
PR14  -6789.482379  12891.932005 -20924.905158 999999.999999
PR15   2705.865584  23958.990984  -8307.331976 999999.999999
PR16  10794.698816  21137.698697   9309.978820 999999.999999
PR17 -16035.151687   4874.702304  19228.189991 999999.999999
PR18    527.573895  10927.709655  23061.688170 999999.999999
PR19  15371.406800  12272.471969  16253.061382 999999.999999
PR20  24536.954260   5863.664547  -3623.541114 999999.999999
PR21  15605.288322  -4949.175623 -19563.832609 999999.999999
PR22  -1252.310872 -11576.541532 -22664.280216 999999.999999
PR24 -24742.385225  -4498.383049   4238.588605 999999.999999
PR25  16331.528456  -4413.181254 -19089.306311 999999.999999
PR26   9102.809893 -19077.950709  14306.732612 999999.999999
EOF
